API VERSION: 1.2
API SOURCE: NASA/JPL Horizons API



*******************************************************************************
Ephemeris / API_USER Sat Jul 11 19:37:01 2026 Pasadena, USA      / Horizons    
*******************************************************************************
Target body name: 2060 Chiron (1977 UB)           {source: JPL#171}
Center body name: Earth (399)                     {source: DE441}
Center-site name: GEOCENTRIC
*******************************************************************************
Start time      : A.D. 2035-Jan-01 00:00:00.0000 UT      
Stop  time      : A.D. 2040-Jan-01 00:00:00.0000 UT      
Step-size       : 2880 minutes
*******************************************************************************
Target pole/equ : undefined
Target radii    : 83. km                                                       
Center geodetic : 0.0, 0.0, -6378.137             {E-lon(deg),Lat(deg),Alt(km)}
Center cylindric: 0.0, 0.0, 0.0                   {E-lon(deg),Dxy(km),Dz(km)}
Center pole/equ : ITRF93                          {East-longitude positive}
Center radii    : 6378.137, 6378.137, 6356.752 km {Equator_a, b, pole_c}       
Target primary  : Sun
Vis. interferer : MOON (R_eq= 1737.400) km        {source: DE441}
Rel. light bend : Sun                             {source: DE441}
Rel. lght bnd GM: 1.3271E+11 km^3/s^2                                          
Small-body perts: Yes                             {source: SB441-N16}
Atmos refraction: NO (AIRLESS)
RA format       : DEG
Time format     : CAL 
Calendar mode   : Mixed Julian/Gregorian
EOP file        : eop.260710.p261006                                           
EOP coverage    : DATA-BASED 1962-JAN-20 TO 2026-JUL-10. PREDICTS-> 2026-OCT-05
Units conversion: 1 au= 149597870.700 km, c= 299792.458 km/s, 1 day= 86400.0 s 
Table cut-offs 1: Elevation (-90.0deg=NO ),Airmass (>38.000=NO), Daylight (NO )
Table cut-offs 2: Solar elongation (  0.0,180.0=NO ),Local Hour Angle( 0.0=NO )
Table cut-offs 3: RA/DEC angular rate (     0.0=NO )                           
*******************************************************************************
Initial IAU76/J2000 heliocentric ecliptic osculating elements (au, days, deg.):
  EPOCH=  2457916.5 ! 2017-Jun-12.00 (TDB)         Residual RMS= .19933        
   EC= .3824171374703196   QR= 8.427522999110739   TP= 2450143.7110841358      
   OM= 209.2011323125998   W=  339.6529896907077   IN= 6.94959060447848        
  Equivalent ICRF heliocentric cartesian coordinates (au, au/d):
   X= 1.843374627977423E+01  Y=-1.877818593473934E+00  Z= 5.548833989583914E-01
  VX= 7.316266023833624E-04 VY= 2.960187278972600E-03 VZ= 9.710586201315230E-04
Asteroid physical parameters (km, seconds, rotational period in hours):        
   GM= n.a.                RAD= 83.                ROTPER= 5.918               
   H= 5.54                 G= .150                 B-V= .704                   
                           ALBEDO= .150            STYP= Cb                    
*******************************************************************************
 Date__(UT)__HR:MN        ObsEcLon    ObsEcLat
**********************************************
$$SOE
 2035-Oct-16 00:00      72.0554991  -4.6075450
 2035-Oct-18 00:00      71.9932208  -4.6191673
 2035-Oct-20 00:00      71.9270670  -4.6305607
 2035-Oct-22 00:00      71.8571249  -4.6417104
 2035-Oct-24 00:00      71.7834434  -4.6526019
 2035-Oct-26 00:00      71.7060871  -4.6632208
 2035-Oct-28 00:00      71.6251765  -4.6735528
 2035-Oct-30 00:00      71.5408811  -4.6835842
 2035-Nov-01 00:00      71.4533827  -4.6933011
 2035-Nov-03 00:00      71.3628489  -4.7026901
 2035-Nov-05 00:00      71.2694296  -4.7117381
 2035-Nov-07 00:00      71.1732718  -4.7204327
 2035-Nov-09 00:00      71.0745309  -4.7287617
 2035-Nov-11 00:00      70.9733800  -4.7367138
 2035-Nov-13 00:00      70.8700172  -4.7442781
 2035-Nov-15 00:00      70.7646640  -4.7514446
 2035-Nov-17 00:00      70.6575345  -4.7582041
 2035-Nov-19 00:00      70.5487886  -4.7645482
 2035-Nov-21 00:00      70.4385515  -4.7704693
 2035-Nov-23 00:00      70.3269861  -4.7759605
 2035-Nov-25 00:00      70.2143166  -4.7810159
 2035-Nov-27 00:00      70.1007966  -4.7856301
 2035-Nov-29 00:00      69.9866734  -4.7897986
 2035-Dec-01 00:00      69.8721726  -4.7935178
 2035-Dec-03 00:00      69.7575008  -4.7967848
 2035-Dec-05 00:00      69.6428593  -4.7995980
 2035-Dec-07 00:00      69.5284563  -4.8019565
 2035-Dec-09 00:00      69.4145139  -4.8038605
 2035-Dec-11 00:00      69.3012720  -4.8053112
 2035-Dec-13 00:00      69.1889809  -4.8063108
 2035-Dec-15 00:00      69.0778680  -4.8068626
 2035-Dec-17 00:00      68.9680938  -4.8069709
 2035-Dec-19 00:00      68.8597873  -4.8066409
 2035-Dec-21 00:00      68.7531293  -4.8058788
 2035-Dec-23 00:00      68.6483571  -4.8046911
 2035-Dec-25 00:00      68.5457143  -4.8030856
 2035-Dec-27 00:00      68.4454199  -4.8010703
 2035-Dec-29 00:00      68.3476635  -4.7986544
 2035-Dec-31 00:00      68.2526141  -4.7958476
 2036-Jan-02 00:00      68.1604328  -4.7926603
 2036-Jan-04 00:00      68.0712840  -4.7891037
 2036-Jan-06 00:00      67.9853422  -4.7851895
 2036-Jan-08 00:00      67.9027904  -4.7809302
 2036-Jan-10 00:00      67.8238080  -4.7763389
 2036-Jan-12 00:00      67.7485377  -4.7714292
 2036-Jan-14 00:00      67.6770537  -4.7662153
 2036-Jan-16 00:00      67.6094070  -4.7607117
 2036-Jan-18 00:00      67.5457090  -4.7549332
 2036-Jan-20 00:00      67.4861199  -4.7488949
 2036-Jan-22 00:00      67.4307869  -4.7426118
 2036-Jan-24 00:00      67.3798214  -4.7360991
 2036-Jan-26 00:00      67.3333046  -4.7293723
 2036-Jan-28 00:00      67.2913000  -4.7224466
 2036-Jan-30 00:00      67.2538649  -4.7153378
 2036-Feb-01 00:00      67.2210616  -4.7080614
 2036-Feb-03 00:00      67.1929619  -4.7006330
 2036-Feb-05 00:00      67.1696411  -4.6930682
 2036-Feb-07 00:00      67.1511590  -4.6853828
 2036-Feb-09 00:00      67.1375317  -4.6775923
 2036-Feb-11 00:00      67.1287187  -4.6697124
 2036-Feb-13 00:00      67.1246743  -4.6617585
 2036-Feb-15 00:00      67.1254169  -4.6537457
 2036-Feb-17 00:00      67.1310048  -4.6456888
 2036-Feb-19 00:00      67.1414724  -4.6376022
 2036-Feb-21 00:00      67.1568156  -4.6295000
 2036-Feb-23 00:00      67.1770053  -4.6213958
 2036-Feb-25 00:00      67.2020028  -4.6133031
 2036-Feb-27 00:00      67.2317695  -4.6052350
 2036-Feb-29 00:00      67.2662765  -4.5972043
 2036-Mar-02 00:00      67.3055074  -4.5892236
 2036-Mar-04 00:00      67.3494453  -4.5813051
 2036-Mar-06 00:00      67.3980484  -4.5734608
 2036-Mar-08 00:00      67.4512294  -4.5657027
 2036-Mar-10 00:00      67.5088652  -4.5580420
 2036-Mar-12 00:00      67.5708513  -4.5504900
 2036-Mar-14 00:00      67.6371445  -4.5430573
 2036-Mar-16 00:00      67.7077295  -4.5357540
 2036-Mar-18 00:00      67.7825618  -4.5285898
 2036-Mar-20 00:00      67.8615606  -4.5215739
 2036-Mar-22 00:00      67.9446281  -4.5147150
 2036-Mar-24 00:00      68.0316654  -4.5080217
 2036-Mar-26 00:00      68.1225811  -4.5015020
 2036-Mar-28 00:00      68.2172978  -4.4951639
 2036-Mar-30 00:00      68.3157527  -4.4890149
 2036-Apr-01 00:00      68.4178774  -4.4830624
 2036-Apr-03 00:00      68.5235679  -4.4773135
 2036-Apr-05 00:00      68.6326768  -4.4717752
 2036-Apr-07 00:00      68.7450465  -4.4664542
 2036-Apr-09 00:00      68.8605591  -4.4613569
 2036-Apr-11 00:00      68.9791490  -4.4564891
 2036-Apr-13 00:00      69.1007626  -4.4518563
 2036-Apr-15 00:00      69.2253147  -4.4474636
 2036-Apr-17 00:00      69.3526884  -4.4433156
 2036-Apr-19 00:00      69.4827574  -4.4394169
 2036-Apr-21 00:00      69.6154012  -4.4357716
 2036-Apr-23 00:00      69.7505123  -4.4323839
 2036-Apr-25 00:00      69.8879997  -4.4292575
 2036-Apr-27 00:00      70.0277857  -4.4263963
 2036-Apr-29 00:00      70.1697797  -4.4238039
 2036-May-01 00:00      70.3138447  -4.4214840
 2036-May-03 00:00      70.4598064  -4.4194401
 2036-May-05 00:00      70.6075063  -4.4176754
 2036-May-07 00:00      70.7568398  -4.4161930
 2036-May-09 00:00      70.9077406  -4.4149955
 2036-May-11 00:00      71.0601369  -4.4140850
 2036-May-13 00:00      71.2139250  -4.4134638
 2036-May-15 00:00      71.3689764  -4.4131334
 2036-May-17 00:00      71.5251590  -4.4130955
 2036-May-19 00:00      71.6823517  -4.4133518
 2036-May-21 00:00      71.8404493  -4.4139037
 2036-May-23 00:00      71.9993633  -4.4147527
 2036-May-25 00:00      72.1590143  -4.4159005
 2036-May-27 00:00      72.3193012  -4.4173490
 2036-May-29 00:00      72.4800675  -4.4191001
 2036-May-31 00:00      72.6411281  -4.4211557
 2036-Jun-02 00:00      72.8023378  -4.4235141
 2036-Jun-04 00:00      72.9636153  -4.4261704
 2036-Jun-06 00:00      73.1249044  -4.4291259
 2036-Jun-08 00:00      73.2861230  -4.4323864
 2036-Jun-10 00:00      73.4471555  -4.4359535
 2036-Jun-12 00:00      73.6078699  -4.4398268
 2036-Jun-14 00:00      73.7681376  -4.4440053
 2036-Jun-16 00:00      73.9278440  -4.4484882
 2036-Jun-18 00:00      74.0868921  -4.4532749
 2036-Jun-20 00:00      74.2451996  -4.4583648
 2036-Jun-22 00:00      74.4026862  -4.4637574
 2036-Jun-24 00:00      74.5592427  -4.4694524
 2036-Jun-26 00:00      74.7147019  -4.4754496
 2036-Jun-28 00:00      74.8688820  -4.4817484
 2036-Jun-30 00:00      75.0216625  -4.4883481
 2036-Jul-02 00:00      75.1729791  -4.4952475
 2036-Jul-04 00:00      75.3227688  -4.5024448
 2036-Jul-06 00:00      75.4709398  -4.5099381
 2036-Jul-08 00:00      75.6173745  -4.5177252
 2036-Jul-10 00:00      75.7619464  -4.5258037
 2036-Jul-12 00:00      75.9045357  -4.5341712
 2036-Jul-14 00:00      76.0450387  -4.5428251
 2036-Jul-16 00:00      76.1833692  -4.5517627
 2036-Jul-18 00:00      76.3194517  -4.5609814
 2036-Jul-20 00:00      76.4532044  -4.5704786
 2036-Jul-22 00:00      76.5845111  -4.5802515
 2036-Jul-24 00:00      76.7132021  -4.5902973
 2036-Jul-26 00:00      76.8391091  -4.6006132
 2036-Jul-28 00:00      76.9621384  -4.6111953
